QIANFAN-33              
1 61566U 24185Q   26002.75423758  .00000691  00000+0  49010-3 0  9997
2 61566  88.9788  76.4693 0005197 252.8856 107.1752 13.96572543 72093
QIANFAN-34              
1 61567U 24185R   26002.77617900  .00000768  00000+0  49220-3 0  9992
2 61567  88.9765  76.0024 0003516 259.0203 101.0582 14.02328566 72301
QIANFAN-35              
1 61568U 24185S   26002.71948615  .00001417  00000+0  56570-3 0  9995
2 61568  88.9789  74.4209 0005811 197.3005 162.7992 14.28010859 73175
QIANFAN-36              
1 61569U 24185T   26002.70440984  .00000050  00000+0  54016-4 0  9997
2 61569  88.9774  78.8649 0005267   0.9048 359.2115 13.55594958 70765
QIANFAN-37              
1 62238U 24232B   26002.73052302  .00000099  00000+0  13470-3 0  9991
2 62238  89.0000  39.2096 0002404  82.8777 277.2647 13.50981578102003
QIANFAN-38              
1 62239U 24232C   26002.75521550  .00000123  00000+0  17095-3 0  9995
2 62239  89.0007  39.1243 0016173 130.3544 229.9022 13.50979387102065
QIANFAN-39              
1 62240U 24232D   26002.69437108  .00000508  00000+0  20887-3 0  9995
2 62240  88.9999  34.9113 0016584  18.2914 341.8872 14.25407557104376
QIANFAN-40              
1 62241U 24232E   26002.71406873  .00000110  00000+0  15165-3 0  9996
2 62241  89.0035  38.7187 0015036 137.3375 222.8947 13.50979379102426
